[{"OBJECT_NAME":"STARLINK-30265","OBJECT_ID":"2023-122Q","EPOCH":"2026-03-09T02:41:42.936864","MEAN_MOTION":15.26741509,"ECCENTRICITY":0.00012252,"INCLINATION":43.0004,"RA_OF_ASC_NODE":95.3336,"ARG_OF_PERICENTER":290.4065,"MEAN_ANOMALY":69.6655,"EPHEMERIS_TYPE":0,"CLASSIFICATION_TYPE":"U","NORAD_CAT_ID":57646,"ELEMENT_SET_NO":999,"REV_AT_EPOCH":14212,"BSTAR":4.6145162e-5,"MEAN_MOTION_DOT":9.78e-6,"MEAN_MOTION_DDOT":0},{"OBJECT_NAME":"QAEM 100 R\/B","OBJECT_ID":"2024-165A","EPOCH":"2026-03-09T23:28:11.930304","MEAN_MOTION":15.14187295,"ECCENTRICITY":0.0059581,"INCLINATION":64.0756,"RA_OF_ASC_NODE":359.5576,"ARG_OF_PERICENTER":312.0209,"MEAN_ANOMALY":47.5844,"EPHEMERIS_TYPE":0,"CLASSIFICATION_TYPE":"U","NORAD_CAT_ID":61071,"ELEMENT_SET_NO":999,"REV_AT_EPOCH":8183,"BSTAR":0.0003372463,"MEAN_MOTION_DOT":6.252e-5,"MEAN_MOTION_DDOT":0}]
